[{"OBJECT_NAME":"STARLINK-3132","OBJECT_ID":"2021-104BB","EPOCH":"2026-03-09T17:23:47.100480","MEAN_MOTION":15.08833424,"ECCENTRICITY":0.00013012,"INCLINATION":53.2176,"RA_OF_ASC_NODE":218.9754,"ARG_OF_PERICENTER":96.0867,"MEAN_ANOMALY":264.0274,"EPHEMERIS_TYPE":0,"CLASSIFICATION_TYPE":"U","NORAD_CAT_ID":49457,"ELEMENT_SET_NO":999,"REV_AT_EPOCH":23878,"BSTAR":1.987576e-6,"MEAN_MOTION_DOT":-2.56e-6,"MEAN_MOTION_DDOT":0},{"OBJECT_NAME":"FENGYUN 1C DEB","OBJECT_ID":"1999-025AMC","EPOCH":"2026-03-09T19:39:36.291456","MEAN_MOTION":15.06799557,"ECCENTRICITY":0.00299661,"INCLINATION":98.9468,"RA_OF_ASC_NODE":22.995,"ARG_OF_PERICENTER":242.9892,"MEAN_ANOMALY":116.8272,"EPHEMERIS_TYPE":0,"CLASSIFICATION_TYPE":"U","NORAD_CAT_ID":30597,"ELEMENT_SET_NO":999,"REV_AT_EPOCH":99841,"BSTAR":0.005730905,"MEAN_MOTION_DOT":0.00087128,"MEAN_MOTION_DDOT":0}]
